NORAD_CAT_ID,OBJECT_NAME,OBJECT_TYPE,EPOCH,MEAN_MOTION,ECCENTRICITY,INCLINATION,RA_OF_ASC_NODE,ARG_OF_PERICENTER,MEAN_ANOMALY,BSTAR,MEAN_MOTION_DOT,MEAN_MOTION_DDOT,TLE_LINE0,TLE_LINE1,TLE_LINE2,SEMIMAJOR_AXIS,PERIOD,APOGEE,PERIGEE,DECAYED
54795.0,STARLINK-5436,PAYLOAD,2024-06-03 23:30:59,15.08846381,0.0001007,53.2185,38.6716,67.6946,292.4152,8.4462e-05,1.057e-05,0.0,0 STARLINK-5436,1 54795U 22175AP  24155.97985083  .00001057  00000-0  84462-4 0  9994,2 54795  53.2185  38.6716 0001007  67.6946 292.4152 15.08846381 80796,6917.861,95.437,540.423,539.029,0.0
54795.0,STARLINK-5436,PAYLOAD,2024-06-04 09:03:17,15.08850971,0.0001499,53.2186,36.8883,87.0433,273.073,8.2085e-05,1.019e-05,0.0,0 STARLINK-5436,1 54795U 22175AP  24156.37728444  .00001019  00000-0  82085-4 0  9992,2 54795  53.2186  36.8883 0001499  87.0433 273.0730 15.08850971 83019,6917.847,95.437,540.749,538.675,0.0
54795.0,STARLINK-5436,PAYLOAD,2024-06-04 23:21:46,15.08842253,0.0001022,53.2183,34.2093,70.9375,289.1728,-6.7323e-05,-1.359e-05,0.0,0 STARLINK-5436,1 54795U 22175AP  24156.97345552 -.00001359  00000-0 -67323-4 0  9990,2 54795  53.2183  34.2093 0001022  70.9375 289.1728 15.08842253 80947,6917.874,95.437,540.446,539.031,0.0
54795.0,STARLINK-5436,PAYLOAD,2024-06-05 08:54:04,15.08855789,0.0001231,53.2208,32.4263,67.9739,292.1383,7.751e-05,9.46e-06,0.0,0 STARLINK-5436,1 54795U 22175AP  24157.37088120  .00000946  00000-0  77510-4 0  9998,2 54795  53.2208  32.4263 0001231  67.9739 292.1383 15.08855789 81003,6917.832,95.437,540.549,538.846,0.0
54795.0,STARLINK-5436,PAYLOAD,2024-06-05 21:37:11,15.08812768,1.22e-05,53.2184,30.0458,307.6076,52.4905,-9.8127e-05,-1.847e-05,0.0,0 STARLINK-5436,1 54795U 22175AP  24157.90083223 -.00001847  00000-0 -98127-4 0  9996,2 54795  53.2184  30.0458 0000122 307.6076  52.4905 15.08812768 81087,6917.964,95.439,539.913,539.744,0.0
54795.0,STARLINK-5436,PAYLOAD,2024-06-06 08:44:51,15.08851998,9.4e-05,53.2178,27.9645,91.7888,268.3211,0.00016138,2.282e-05,0.0,0 STARLINK-5436,1 54795U 22175AP  24158.36448035  .00002282  00000-0  16138-3 0  9996,2 54795  53.2178  27.9645 0000940  91.7888 268.3211 15.08851998 81157,6917.844,95.437,540.359,539.058,0.0
54795.0,STARLINK-5436,PAYLOAD,2024-06-07 00:38:44,15.08823252,0.000184,53.2164,24.992,86.3095,273.8107,0.00016576,2.35e-05,0.0,0 STARLINK-5436,1 54795U 22175AP  24159.02690288  .00002350  00000-0  16576-3 0  9991,2 54795  53.2164  24.9920 0001840  86.3095 273.8107 15.08823252 81253,6917.932,95.439,541.069,538.524,0.0
54795.0,STARLINK-5436,PAYLOAD,2024-06-07 08:35:38,15.08848695,7.78e-05,53.2193,23.5039,136.1204,223.985,3.8787e-05,3.3e-06,0.0,0 STARLINK-5436,1 54795U 22175AP  24159.35808663  .00000330  00000-0  38787-4 0  9990,2 54795  53.2193  23.5039 0000778 136.1204 223.9850 15.08848695 81301,6917.854,95.437,540.257,539.181,0.0
54795.0,STARLINK-5436,PAYLOAD,2024-06-07 21:18:44,15.08834838,0.0001144,53.2169,21.1257,103.3394,256.7726,0.0002312,3.393e-05,0.0,0 STARLINK-5436,1 54795U 22175AP  24159.88801421  .00003393  00000-0  23120-3 0  9999,2 54795  53.2169  21.1257 0001144 103.3394 256.7726 15.08834838 81382,6917.896,95.438,540.553,538.97,0.0
54795.0,STARLINK-5436,PAYLOAD,2024-06-09 00:20:18,15.08840183,0.000175,53.2158,16.0714,103.0661,257.0527,1.4887e-05,-5.1e-07,0.0,0 STARLINK-5436,1 54795U 22175AP  24161.01409931 -.00000051  00000-0  14887-4 0  9997,2 54795  53.2158  16.0714 0001750 103.0661 257.0527 15.08840183 81550,6917.88,95.438,540.955,538.534,0.0
54795.0,STARLINK-5436,PAYLOAD,2024-06-10 06:32:38,15.08835745,0.0001584,53.2167,10.4222,97.1812,262.936,2.0284e-05,3.5e-07,0.0,0 STARLINK-5436,1 54795U 22175AP  24162.27266443  .00000035  00000-0  20284-4 0  9994,2 54795  53.2167  10.4222 0001584  97.1812 262.9360 15.08835745 81747,6917.893,95.438,540.854,538.663,0.0
54795.0,STARLINK-5436,PAYLOAD,2024-06-10 20:51:06,15.08800222,9.55e-05,53.2179,7.7496,110.3696,249.7399,0.00048755,7.472e-05,0.0,0 STARLINK-5436,1 54795U 22175AP  24162.86882730  .00007472  00000-0  48755-3 0  9996,2 54795  53.2179   7.7496 0000955 110.3696 249.7399 15.08800222 81838,6918.002,95.44,540.528,539.206,0.0
54795.0,STARLINK-5436,PAYLOAD,2024-06-11 00:01:52,15.08841966,0.0001447,53.2189,7.1522,79.3877,280.7278,0.0001329,1.828e-05,0.0,0 STARLINK-5436,1 54795U 22175AP  24163.00129991  .00001828  00000-0  13290-3 0  9991,2 54795  53.2189   7.1522 0001447  79.3877 280.7278 15.08841966 81858,6917.874,95.437,540.74,538.738,0.0
54795.0,STARLINK-5436,PAYLOAD,2024-06-11 06:23:24,15.08848806,0.0001218,53.2183,5.9632,84.7527,275.3605,0.00015899,2.244e-05,0.0,0 STARLINK-5436,1 54795U 22175AP  24163.26625261  .00002244  00000-0  15899-3 0  9990,2 54795  53.2183   5.9632 0001218  84.7527 275.3605 15.08848806 84057,6917.853,95.437,540.561,538.876,0.0
54795.0,STARLINK-5436,PAYLOAD,2024-06-11 22:17:16,15.08840007,0.000151,53.2197,2.9933,98.642,261.4743,9.5619e-05,1.234e-05,0.0,0 STARLINK-5436,1 54795U 22175AP  24163.92866208  .00001234  00000-0  95619-4 0  9998,2 54795  53.2197   2.9933 0001510  98.6420 261.4743 15.08840007 81998,6917.88,95.438,540.79,538.701,0.0
54795.0,STARLINK-5436,PAYLOAD,2024-06-12 20:32:40,15.08837205,0.0001269,53.2188,358.8256,98.3985,261.7151,-2.5128e-05,-6.88e-06,0.0,0 STARLINK-5436,1 54795U 22175AP  24164.85602918 -.00000688  00000-0 -25128-4 0  9999,2 54795  53.2188 358.8256 0001269  98.3985 261.7151 15.08837205 82132,6917.889,95.438,540.632,538.876,0.0
54795.0,STARLINK-5436,PAYLOAD,2024-06-12 22:08:04,15.08836349,0.0001262,53.2184,358.5279,90.3026,269.8111,-2.7026e-05,-7.18e-06,0.0,0 STARLINK-5436,1 54795U 22175AP  24164.92227000 -.00000718  00000-0 -27026-4 0  9995,2 54795  53.2184 358.5279 0001262  90.3026 269.8111 15.08836349 84305,6917.892,95.438,540.63,538.884,0.0
54795.0,STARLINK-5436,PAYLOAD,2024-06-13 06:04:59,15.08844051,0.0001252,53.2184,357.0424,89.885,270.2285,-1.5347e-05,-5.32e-06,0.0,0 STARLINK-5436,1 54795U 22175AP  24165.25346462 -.00000532  00000-0 -15347-4 0  9993,2 54795  53.2184 357.0424 0001252  89.8850 270.2285 15.08844051 82190,6917.868,95.437,540.599,538.867,0.0
54795.0,STARLINK-5436,PAYLOAD,2024-06-13 18:48:04,15.08843857,0.0001233,53.2181,354.6607,91.2563,268.857,1.7057e-05,-1.6e-07,0.0,0 STARLINK-5436,1 54795U 22175AP  24165.78338419 -.00000016  00000-0  17057-4 0  9990,2 54795  53.2181 354.6607 0001233  91.2563 268.8570 15.08843857 84432,6917.869,95.437,540.587,538.881,0.0
54795.0,STARLINK-5436,PAYLOAD,2024-06-14 12:17:19,15.08835149,0.0001585,53.2178,351.3911,86.7286,273.3888,9.2634e-05,1.186e-05,0.0,0 STARLINK-5436,1 54795U 22175AP  24166.51202682  .00001186  00000-0  92634-4 0  9996,2 54795  53.2178 351.3911 0001585  86.7286 273.3888 15.08835149 84541,6917.895,95.438,540.857,538.664,0.0
54795.0,STARLINK-5436,PAYLOAD,2024-06-14 18:38:51,15.0883681,0.0001231,53.2174,350.2017,90.3459,269.7674,6.307e-05,7.16e-06,0.0,0 STARLINK-5436,1 54795U 22175AP  24166.77698596  .00000716  00000-0  63070-4 0  9997,2 54795  53.2174 350.2017 0001231  90.3459 269.7674 15.08836810 84585,6917.89,95.438,540.607,538.904,0.0
54795.0,STARLINK-5436,PAYLOAD,2024-06-15 12:08:05,15.08840704,0.0001613,53.2179,346.9298,91.0451,269.0726,7.2097e-05,8.6e-06,0.0,0 STARLINK-5436,1 54795U 22175AP  24167.50562356  .00000860  00000-0  72097-4 0  9992,2 54795  53.2179 346.9298 0001613  91.0451 269.0726 15.08840704 84697,6917.878,95.438,540.859,538.627,0.0
54795.0,STARLINK-5436,PAYLOAD,2024-06-15 21:40:24,15.08846587,0.0001391,53.2194,345.1463,87.9942,272.121,-3.1218e-05,-7.85e-06,0.0,0 STARLINK-5436,1 54795U 22175AP  24167.90306265 -.00000785  00000-0 -31218-4 0  9999,2 54795  53.2194 345.1463 0001391  87.9942 272.1210 15.08846587 84756,6917.86,95.437,540.688,538.763,0.0
54795.0,STARLINK-5436,PAYLOAD,2024-06-16 18:20:25,15.08832589,0.0001345,53.2177,341.2796,93.5723,266.5423,7.8393e-05,9.6e-06,0.0,0 STARLINK-5436,1 54795U 22175AP  24168.76418844  .00000960  00000-0  78393-4 0  9999,2 54795  53.2177 341.2796 0001345  93.5723 266.5423 15.08832589 84886,6917.903,95.438,540.698,538.838,0.0
54795.0,STARLINK-5436,PAYLOAD,2024-06-17 18:11:13,15.08834654,0.0001182,53.2191,336.8228,92.5071,267.6056,7.1135e-05,8.44e-06,0.0,0 STARLINK-5436,1 54795U 22175AP  24169.75779003  .00000844  00000-0  71135-4 0  9994,2 54795  53.2191 336.8228 0001182  92.5071 267.6056 15.08834654 85033,6917.897,95.438,540.579,538.944,0.0
54795.0,STARLINK-5436,PAYLOAD,2024-06-18 03:43:31,15.08843591,0.0001253,53.218,335.0388,91.9009,268.2126,8.6199e-05,1.084e-05,0.0,0 STARLINK-5436,1 54795U 22175AP  24170.15522409  .00001084  00000-0  86199-4 0  9999,2 54795  53.2180 335.0388 0001253  91.9009 268.2126 15.08843591 82933,6917.869,95.437,540.601,538.868,0.0
54795.0,STARLINK-5436,PAYLOAD,2024-06-18 14:51:14,15.08833636,0.0001401,53.2199,332.9596,101.9173,258.1976,7.1316e-05,8.47e-06,0.0,0 STARLINK-5436,1 54795U 22175AP  24170.61891227  .00000847  00000-0  71316-4 0  9998,2 54795  53.2199 332.9596 0001401 101.9173 258.1976 15.08833636 85167,6917.9,95.438,540.734,538.796,0.0
54795.0,STARLINK-5436,PAYLOAD,2024-06-18 19:37:23,15.08837214,0.000124,53.2193,332.0646,92.9653,267.1481,9.1574e-05,1.17e-05,0.0,0 STARLINK-5436,1 54795U 22175AP  24170.81762976  .00001170  00000-0  91574-4 0  9996,2 54795  53.2193 332.0646 0001240  92.9653 267.1481 15.08837214 83032,6917.889,95.438,540.612,538.896,0.0
54795.0,STARLINK-5436,PAYLOAD,2024-06-19 14:42:01,15.08830882,0.0001779,53.2171,328.4971,97.1391,262.9803,6.7865e-06,-1.8e-06,0.0,0 STARLINK-5436,1 54795U 22175AP  24171.61251918 -.00000180  00000-0  67865-5 0  9992,2 54795  53.2171 328.4971 0001779  97.1391 262.9803 15.08830882 85319,6917.908,95.438,541.004,538.543,0.0
54795.0,STARLINK-5436,PAYLOAD,2024-06-19 19:28:10,15.08833975,0.000145,53.2176,327.6045,95.5362,264.5795,2.8722e-05,1.69e-06,0.0,0 STARLINK-5436,1 54795U 22175AP  24171.81123700  .00000169  00000-0  28722-4 0  9995,2 54795  53.2176 327.6045 0001450  95.5362 264.5795 15.08833975 83180,6917.899,95.438,540.767,538.761,0.0
